{
  "type": "FeatureCollection",
  "features": [
    {
      "type": "Feature",
      "properties": {
        "norad_id": 57400,
        "name": "TIANMU-1 08",
        "group": "weather",
        "lat": -16.3238351373512,
        "lon": -136.9984278785253,
        "alt_km": 489.88595776643797,
        "timestamp": "2025-12-21T16:47:54.372105+00:00",
        "meta_object_name": "TIANMU-1 08",
        "meta_object_id": "2023-101B",
        "meta_epoch": "2025-12-21T11:13:40.374624",
        "meta_mean_motion": 15.28167756,
        "meta_eccentricity": 0.0007176,
        "meta_inclination": 97.2851,
        "meta_ra_of_asc_node": 44.9218,
        "meta_arg_of_pericenter": 59.303,
        "meta_mean_anomaly": 300.8916,
        "meta_ephemeris_type": 0,
        "meta_classification_type": "U",
        "meta_norad_cat_id": 57400,
        "meta_element_set_no": 999,
        "meta_rev_at_epoch": 13448,
        "meta_bstar": 0.00020436,
        "meta_mean_motion_dot": 5.541e-05,
        "meta_mean_motion_ddot": 0,
        "tle_line1": "1 57400U 23101B   25355.46782841  .00005541  00000+0  20436-3 0  9995",
        "tle_line2": "2 57400  97.2851  44.9218 0007176  59.3030 300.8916 15.28167756134484"
      },
      "geometry": {
        "type": "Point",
        "coordinates": [
          -136.9984278785253,
          -16.3238351373512
        ]
      }
    },
    {
      "type": "Feature",
      "properties": {
        "norad_id": 57401,
        "name": "TIANMU-1 09",
        "group": "weather",
        "lat": -82.71355614605557,
        "lon": 135.38601110499462,
        "alt_km": 492.356731973935,
        "timestamp": "2025-12-21T16:47:54.372115+00:00",
        "meta_object_name": "TIANMU-1 09",
        "meta_object_id": "2023-101C",
        "meta_epoch": "2025-12-21T12:28:40.465920",
        "meta_mean_motion": 15.28201704,
        "meta_eccentricity": 0.0006446,
        "meta_inclination": 97.2808,
        "meta_ra_of_asc_node": 44.4815,
        "meta_arg_of_pericenter": 59.7686,
        "meta_mean_anomaly": 300.4191,
        "meta_ephemeris_type": 0,
        "meta_classification_type": "U",
        "meta_norad_cat_id": 57401,
        "meta_element_set_no": 999,
        "meta_rev_at_epoch": 13449,
        "meta_bstar": 0.00020695,
        "meta_mean_motion_dot": 5.618e-05,
        "meta_mean_motion_ddot": 0,
        "tle_line1": "1 57401U 23101C   25355.51991280  .00005618  00000+0  20695-3 0  9993",
        "tle_line2": "2 57401  97.2808  44.4815 0006446  59.7686 300.4191 15.28201704134499"
      },
      "geometry": {
        "type": "Point",
        "coordinates": [
          135.38601110499462,
          -82.71355614605557
        ]
      }
    },
    {
      "type": "Feature",
      "properties": {
        "norad_id": 57402,
        "name": "TIANMU-1 10",
        "group": "weather",
        "lat": 78.90698210111289,
        "lon": 4.762761645066364,
        "alt_km": 468.77274366961683,
        "timestamp": "2025-12-21T16:47:54.372125+00:00",
        "meta_object_name": "TIANMU-1 10",
        "meta_object_id": "2023-101D",
        "meta_epoch": "2025-12-21T11:43:43.128768",
        "meta_mean_motion": 15.28192894,
        "meta_eccentricity": 0.0008175,
        "meta_inclination": 97.2888,
        "meta_ra_of_asc_node": 45.3101,
        "meta_arg_of_pericenter": 58.0304,
        "meta_mean_anomaly": 302.173,
        "meta_ephemeris_type": 0,
        "meta_classification_type": "U",
        "meta_norad_cat_id": 57402,
        "meta_element_set_no": 999,
        "meta_rev_at_epoch": 13448,
        "meta_bstar": 0.00021818,
        "meta_mean_motion_dot": 5.927e-05,
        "meta_mean_motion_ddot": 0,
        "tle_line1": "1 57402U 23101D   25355.48869362  .00005927  00000+0  21818-3 0  9996",
        "tle_line2": "2 57402  97.2888  45.3101 0008175  58.0304 302.1730 15.28192894134482"
      },
      "geometry": {
        "type": "Point",
        "coordinates": [
          4.762761645066364,
          78.90698210111289
        ]
      }
    },
    {
      "type": "Feature",
      "properties": {
        "norad_id": 57490,
        "name": "FENGYUN 3F",
        "group": "weather",
        "lat": 79.65842791756229,
        "lon": -59.032334561613325,
        "alt_km": 817.7764522843636,
        "timestamp": "2025-12-21T16:47:54.372138+00:00",
        "meta_object_name": "FENGYUN 3F",
        "meta_object_id": "2023-111A",
        "meta_epoch": "2025-12-21T11:16:34.791168",
        "meta_mean_motion": 14.19895757,
        "meta_eccentricity": 7.73e-05,
        "meta_inclination": 98.7072,
        "meta_ra_of_asc_node": 63.622,
        "meta_arg_of_pericenter": 114.3042,
        "meta_mean_anomaly": 245.8215,
        "meta_ephemeris_type": 0,
        "meta_classification_type": "U",
        "meta_norad_cat_id": 57490,
        "meta_element_set_no": 999,
        "meta_rev_at_epoch": 12364,
        "meta_bstar": 5.611e-05,
        "meta_mean_motion_dot": 7.5e-07,
        "meta_mean_motion_ddot": 0,
        "tle_line1": "1 57490U 23111A   25355.46984712  .00000075  00000+0  56110-4 0  9992",
        "tle_line2": "2 57490  98.7072  63.6220 0000773 114.3042 245.8215 14.19895757123640"
      },
      "geometry": {
        "type": "Point",
        "coordinates": [
          -59.032334561613325,
          79.65842791756229
        ]
      }
    },
    {
      "type": "Feature",
      "properties": {
        "norad_id": 58584,
        "name": "ARKTIKA-M 2",
        "group": "weather",
        "lat": 41.32567292658,
        "lon": -32.46829645409024,
        "alt_km": 21279.72356615491,
        "timestamp": "2025-12-21T16:47:54.372150+00:00",
        "meta_object_name": "ARKTIKA-M 2",
        "meta_object_id": "2023-198A",
        "meta_epoch": "2025-12-20T07:20:06.590112",
        "meta_mean_motion": 2.00602824,
        "meta_eccentricity": 0.68654675,
        "meta_inclination": 63.225,
        "meta_ra_of_asc_node": 174.0676,
        "meta_arg_of_pericenter": 268.0739,
        "meta_mean_anomaly": 18.8406,
        "meta_ephemeris_type": 0,
        "meta_classification_type": "U",
        "meta_norad_cat_id": 58584,
        "meta_element_set_no": 999,
        "meta_rev_at_epoch": 1473,
        "meta_bstar": 0,
        "meta_mean_motion_dot": 2.01e-06,
        "meta_mean_motion_ddot": 0,
        "tle_line1": "1 58584U 23198A   25354.30563183  .00000201  00000+0  00000+0 0  9992",
        "tle_line2": "2 58584  63.2250 174.0676 6865467 268.0739  18.8406  2.00602824 14734"
      },
      "geometry": {
        "type": "Point",
        "coordinates": [
          -32.46829645409024,
          41.32567292658
        ]
      }
    },
    {
      "type": "Feature",
      "properties": {
        "norad_id": 58645,
        "name": "TIANMU-1 11",
        "group": "weather",
        "lat": 31.232649396281765,
        "lon": -160.33895180445643,
        "alt_km": 492.9294231869908,
        "timestamp": "2025-12-21T16:47:54.372185+00:00",
        "meta_object_name": "TIANMU-1 11",
        "meta_object_id": "2023-205A",
        "meta_epoch": "2025-12-21T12:59:56.069952",
        "meta_mean_motion": 15.2469765,
        "meta_eccentricity": 0.000752,
        "meta_inclination": 97.3594,
        "meta_ra_of_asc_node": 15.0103,
        "meta_arg_of_pericenter": 272.8712,
        "meta_mean_anomaly": 87.1665,
        "meta_ephemeris_type": 0,
        "meta_classification_type": "U",
        "meta_norad_cat_id": 58645,
        "meta_element_set_no": 999,
        "meta_rev_at_epoch": 11043,
        "meta_bstar": 0.00020525,
        "meta_mean_motion_dot": 5.008e-05,
        "meta_mean_motion_ddot": 0,
        "tle_line1": "1 58645U 23205A   25355.54162118  .00005008  00000+0  20525-3 0  9997",
        "tle_line2": "2 58645  97.3594  15.0103 0007520 272.8712  87.1665 15.24697650110437"
      },
      "geometry": {
        "type": "Point",
        "coordinates": [
          -160.33895180445643,
          31.232649396281765
        ]
      }
    },
    {
      "type": "Feature",
      "properties": {
        "norad_id": 58646,
        "name": "TIANMU-1 12",
        "group": "weather",
        "lat": -3.104649716748873,
        "lon": 15.369829596741585,
        "alt_km": 496.6456967007707,
        "timestamp": "2025-12-21T16:47:54.372196+00:00",
        "meta_object_name": "TIANMU-1 12",
        "meta_object_id": "2023-205B",
        "meta_epoch": "2025-12-21T12:05:11.399424",
        "meta_mean_motion": 15.24582591,
        "meta_eccentricity": 0.0005834,
        "meta_inclination": 97.3582,
        "meta_ra_of_asc_node": 14.7754,
        "meta_arg_of_pericenter": 251.4492,
        "meta_mean_anomaly": 108.6112,
        "meta_ephemeris_type": 0,
        "meta_classification_type": "U",
        "meta_norad_cat_id": 58646,
        "meta_element_set_no": 999,
        "meta_rev_at_epoch": 11041,
        "meta_bstar": 0.00020233,
        "meta_mean_motion_dot": 4.917e-05,
        "meta_mean_motion_ddot": 0,
        "tle_line1": "1 58646U 23205B   25355.50360416  .00004917  00000+0  20233-3 0  9999",
        "tle_line2": "2 58646  97.3582  14.7754 0005834 251.4492 108.6112 15.24582591110418"
      },
      "geometry": {
        "type": "Point",
        "coordinates": [
          15.369829596741585,
          -3.104649716748873
        ]
      }
    }
  ]
}